NORAD_CAT_ID,OBJECT_NAME,OBJECT_TYPE,EPOCH,MEAN_MOTION,ECCENTRICITY,INCLINATION,RA_OF_ASC_NODE,ARG_OF_PERICENTER,MEAN_ANOMALY,BSTAR,MEAN_MOTION_DOT,MEAN_MOTION_DDOT,TLE_LINE0,TLE_LINE1,TLE_LINE2,SEMIMAJOR_AXIS,PERIOD,APOGEE,PERIGEE,DECAYED
53022.0,STARLINK-4216,PAYLOAD,2024-04-18 18:56:03,15.08842931,0.000114,53.2158,301.2046,96.6066,263.5056,-1.2491e-05,-4.87e-06,0.0,0 STARLINK-4216,1 53022U 22076AN  24109.78892409 -.00000487  00000-0 -12491-4 0  9994,2 53022  53.2158 301.2046 0001140  96.6066 263.5056 15.08842931 99302,6917.871,95.437,540.525,538.948,0.0
53022.0,STARLINK-4216,PAYLOAD,2024-04-19 12:25:16,15.08846503,0.0001432,53.2169,297.9359,75.0172,285.0979,0.00018708,2.691e-05,0.0,0 STARLINK-4216,1 53022U 22076AN  24110.51755784  .00002691  00000-0  18708-3 0  9994,2 53022  53.2169 297.9359 0001432  75.0172 285.0979 15.08846503 98946,6917.861,95.437,540.716,538.735,0.0
53022.0,STARLINK-4216,PAYLOAD,2024-04-19 18:46:49,15.08845601,0.0001482,53.2164,296.7438,104.6973,255.4183,0.00031402,4.714e-05,0.0,0 STARLINK-4216,1 53022U 22076AN  24110.78252127  .00004714  00000-0  31402-3 0  9990,2 53022  53.2164 296.7438 0001482 104.6973 255.4183 15.08845601 98989,6917.863,95.437,540.753,538.703,0.0
53022.0,STARLINK-4216,PAYLOAD,2024-04-20 18:37:36,15.08849133,0.0001519,53.2171,292.283,109.8269,250.2887,0.00010361,1.362e-05,0.0,0 STARLINK-4216,1 53022U 22076AN  24111.77611645  .00001362  00000-0  10361-3 0  9991,2 53022  53.2171 292.2830 0001519 109.8269 250.2887 15.08849133 99608,6917.852,95.437,540.768,538.667,0.0
53022.0,STARLINK-4216,PAYLOAD,2024-04-21 12:06:50,15.08842508,0.0001539,53.2184,289.0165,94.8588,265.258,3.4065e-05,2.54e-06,0.0,0 STARLINK-4216,1 53022U 22076AN  24112.50475638  .00000254  00000-0  34065-4 0  9990,2 53022  53.2184 289.0165 0001539  94.8588 265.2580 15.08842508 99241,6917.873,95.437,540.802,538.673,0.0
53022.0,STARLINK-4216,PAYLOAD,2024-04-21 18:28:24,15.08828196,0.0001466,53.2173,287.8218,112.7872,247.3275,-0.00018538,-3.236e-05,0.0,0 STARLINK-4216,1 53022U 22076AN  24112.76972505 -.00003236  00000-0 -18538-3 0  9994,2 53022  53.2173 287.8218 0001466 112.7872 247.3275 15.08828196 99754,6917.916,95.438,540.796,538.767,0.0
53022.0,STARLINK-4216,PAYLOAD,2024-04-21 21:39:10,15.08830083,0.0001554,53.2181,287.2263,123.8293,236.2848,-7.3314e-05,-1.454e-05,0.0,0 STARLINK-4216,1 53022U 22076AN  24112.90220965 -.00001454  00000-0 -73314-4 0  9990,2 53022  53.2181 287.2263 0001554 123.8293 236.2848 15.08830083 99307,6917.911,95.438,540.851,538.701,0.0
53022.0,STARLINK-4216,PAYLOAD,2024-04-22 18:19:11,15.0884012,0.0001186,53.2179,283.3613,109.291,250.8211,1.3874e-06,-2.66e-06,0.0,0 STARLINK-4216,1 53022U 22076AN  24113.76332536 -.00000266  00000-0  13874-5 0  9998,2 53022  53.2179 283.3613 0001186 109.2910 250.8211 15.08840120 99900,6917.88,95.438,540.565,538.925,0.0
53022.0,STARLINK-4216,PAYLOAD,2024-04-23 14:59:12,15.08831064,0.0001186,53.2168,279.4956,98.8772,261.2355,0.00017888,2.559e-05,0.0,0 STARLINK-4216,1 53022U 22076AN  24114.62445316  .00002559  00000-0  17888-3 0  9998,2 53022  53.2168 279.4956 0001186  98.8772 261.2355 15.08831064 99567,6917.908,95.438,540.593,538.952,0.0
53022.0,STARLINK-4216,PAYLOAD,2024-04-23 19:45:22,15.08835883,0.0001183,53.2164,278.6033,93.9602,266.1525,0.00023708,3.487e-05,0.0,0 STARLINK-4216,1 53022U 22076AN  24114.82317225  .00003487  00000-0  23708-3 0  9996,2 53022  53.2164 278.6033 0001183  93.9602 266.1525 15.08835883100069,6917.893,95.438,540.576,538.94,0.0
53022.0,STARLINK-4216,PAYLOAD,2024-04-23 21:20:45,15.0883648,0.0001181,53.2164,278.3063,92.087,268.0257,0.00024143,3.556e-05,0.0,0 STARLINK-4216,1 53022U 22076AN  24114.88941260  .00003556  00000-0  24143-3 0  9995,2 53022  53.2164 278.3063 0001181  92.0870 268.0257 15.08836480 99608,6917.891,95.438,540.573,538.939,0.0
53022.0,STARLINK-4216,PAYLOAD,2024-04-24 16:25:23,15.0883426,0.0001303,53.2163,274.7366,80.0927,280.0212,7.9857e-05,9.83e-06,0.0,0 STARLINK-4216,1 53022U 22076AN  24115.68429778  .00000983  00000-0  79857-4 0  9993,2 53022  53.2163 274.7366 0001303  80.0927 280.0212 15.08834260100195,6917.898,95.438,540.664,538.862,0.0
53022.0,STARLINK-4216,PAYLOAD,2024-04-24 21:11:32,15.08841202,0.0001353,53.2166,273.8427,82.0605,278.0541,0.00016622,2.359e-05,0.0,0 STARLINK-4216,1 53022U 22076AN  24115.88301483  .00002359  00000-0  16622-3 0  9996,2 53022  53.2166 273.8427 0001353  82.0605 278.0541 15.08841202 99751,6917.877,95.437,540.678,538.806,0.0
53022.0,STARLINK-4216,PAYLOAD,2024-04-25 14:40:46,15.08841933,0.0001289,53.2167,270.5719,86.0296,274.0843,0.00010185,1.334e-05,0.0,0 STARLINK-4216,1 53022U 22076AN  24116.61165497  .00001334  00000-0  10185-3 0  9991,2 53022  53.2167 270.5719 0001289  86.0296 274.0843 15.08841933 99862,6917.874,95.437,540.631,538.848,0.0
53022.0,STARLINK-4216,PAYLOAD,2024-04-25 16:16:10,15.08840957,0.0001239,53.2168,270.2757,87.7837,272.3297,8.6303e-05,1.086e-05,0.0,0 STARLINK-4216,1 53022U 22076AN  24116.67789521  .00001086  00000-0  86303-4 0  9997,2 53022  53.2168 270.2757 0001239  87.7837 272.3297 15.08840957 99876,6917.877,95.437,540.6,538.885,0.0
53022.0,STARLINK-4216,PAYLOAD,2024-04-26 09:45:25,15.08830445,0.0001178,53.2172,267.0047,111.4432,248.6685,0.00052303,8.044e-05,0.0,0 STARLINK-4216,1 53022U 22076AN  24117.40654213  .00008044  00000-0  52303-3 0  9991,2 53022  53.2172 267.0047 0001178 111.4432 248.6685 15.08830445100450,6917.91,95.438,540.59,538.96,0.0
53022.0,STARLINK-4216,PAYLOAD,2024-04-26 14:31:33,15.08844788,0.0001249,53.2173,266.1123,99.1889,260.9244,6.5926e-05,7.62e-06,0.0,0 STARLINK-4216,1 53022U 22076AN  24117.60525269  .00000762  00000-0  65926-4 0  9996,2 53022  53.2173 266.1123 0001249  99.1889 260.9244 15.08844788100018,6917.866,95.437,540.595,538.867,0.0
53022.0,STARLINK-4216,PAYLOAD,2024-04-26 16:06:57,15.08845764,0.000129,53.2182,265.8159,106.2864,253.827,6.3119e-05,7.17e-06,0.0,0 STARLINK-4216,1 53022U 22076AN  24117.67149317  .00000717  00000-0  63119-4 0  9991,2 53022  53.2182 265.8159 0001290 106.2864 253.8270 15.08845764100499,6917.863,95.437,540.62,538.835,0.0
53022.0,STARLINK-4216,PAYLOAD,2024-04-27 03:14:37,15.08858112,0.0001087,53.2175,263.7351,93.6897,266.4219,0.00013535,1.868e-05,0.0,0 STARLINK-4216,1 53022U 22076AN  24118.13515944  .00001868  00000-0  13535-3 0  9990,2 53022  53.2175 263.7351 0001087  93.6897 266.4219 15.08858112100563,6917.825,95.436,540.442,538.938,0.0
53022.0,STARLINK-4216,PAYLOAD,2024-04-27 09:36:11,15.08841175,0.00022,53.2183,262.5462,90.1093,270.0152,7.0271e-05,8.3e-06,0.0,0 STARLINK-4216,1 53022U 22076AN  24118.40013656  .00000830  00000-0  70271-4 0  9992,2 53022  53.2183 262.5462 0002200  90.1093 270.0152 15.08841175100603,6917.877,95.437,541.264,538.22,0.0
53022.0,STARLINK-4216,PAYLOAD,2024-04-27 14:22:21,15.08834725,0.0001716,53.2177,261.6555,80.7957,279.323,-7.4188e-06,-4.06e-06,0.0,0 STARLINK-4216,1 53022U 22076AN  24118.59886129 -.00000406  00000-0 -74188-5 0  9998,2 53022  53.2177 261.6555 0001716  80.7957 279.3230 15.08834725100167,6917.897,95.438,540.949,538.574,0.0
53022.0,STARLINK-4216,PAYLOAD,2024-04-27 15:57:44,15.08834974,0.000126,53.2155,261.3584,88.0746,272.039,-1.552e-05,-5.35e-06,0.0,0 STARLINK-4216,1 53022U 22076AN  24118.66509992 -.00000535  00000-0 -15520-4 0  9993,2 53022  53.2155 261.3584 0001260  88.0746 272.0390 15.08834974100177,6917.896,95.438,540.632,538.889,0.0
53022.0,STARLINK-4216,PAYLOAD,2024-04-28 12:37:46,15.08822816,0.0001601,53.217,257.4926,101.1841,258.9331,-1.6677e-05,-5.53e-06,0.0,0 STARLINK-4216,1 53022U 22076AN  24119.52622881 -.00000553  00000-0 -16677-4 0  9996,2 53022  53.2170 257.4926 0001601 101.1841 258.9331 15.08822816100778,6917.933,95.439,540.905,538.69,0.0
53022.0,STARLINK-4216,PAYLOAD,2024-04-28 14:13:09,15.08822459,0.0001558,53.2178,257.1957,102.8472,257.2694,-1.8451e-05,-5.81e-06,0.0,0 STARLINK-4216,1 53022U 22076AN  24119.59246959 -.00000581  00000-0 -18451-4 0  9994,2 53022  53.2178 257.1957 0001558 102.8472 257.2694 15.08822459100313,6917.934,95.439,540.877,538.721,0.0
53022.0,STARLINK-4216,PAYLOAD,2024-04-28 15:48:32,15.08823949,0.0001588,53.2189,256.8998,96.8347,263.2825,4.0342e-06,-2.24e-06,0.0,0 STARLINK-4216,1 53022U 22076AN  24119.65870915 -.00000224  00000-0  40342-5 0  9994,2 53022  53.2189 256.8998 0001588  96.8347 263.2825 15.08823949100321,6917.929,95.439,540.893,538.696,0.0
53022.0,STARLINK-4216,PAYLOAD,2024-04-29 12:28:32,15.08832108,0.0001705,53.2191,253.0356,80.1578,279.9607,0.0001714,2.44e-05,0.0,0 STARLINK-4216,1 53022U 22076AN  24120.51982452  .00002440  00000-0  17140-3 0  9990,2 53022  53.2191 253.0356 0001705  80.1578 279.9607 15.08832108100929,6917.905,95.438,540.949,538.59,0.0
53022.0,STARLINK-4216,PAYLOAD,2024-04-29 15:39:19,15.08831662,0.0001358,53.2192,252.4403,81.1524,278.9622,0.00029617,4.428e-05,0.0,0 STARLINK-4216,1 53022U 22076AN  24120.65230456  .00004428  00000-0  29617-3 0  9995,2 53022  53.2192 252.4403 0001358  81.1524 278.9622 15.08831662100472,6917.906,95.438,540.71,538.831,0.0
53022.0,STARLINK-4216,PAYLOAD,2024-04-30 01:11:37,15.08851622,0.0001494,53.219,250.656,85.8203,274.296,0.00023668,3.482e-05,0.0,0 STARLINK-4216,1 53022U 22076AN  24121.04973628  .00003482  00000-0  23668-3 0  9993,2 53022  53.2190 250.6560 0001494  85.8203 274.2960 15.08851622101002,6917.845,95.437,540.743,538.676,0.0
53022.0,STARLINK-4216,PAYLOAD,2024-04-30 13:54:43,15.08833003,0.0001895,53.2186,248.2798,117.3311,242.7874,0.00014304,1.989e-05,0.0,0 STARLINK-4216,1 53022U 22076AN  24121.57966660  .00001989  00000-0  14304-3 0  9996,2 53022  53.2186 248.2798 0001895 117.3311 242.7874 15.08833003101084,6917.902,95.438,541.078,538.456,0.0
53022.0,STARLINK-4216,PAYLOAD,2024-04-30 15:30:06,15.08831449,0.0001281,53.2181,247.9789,90.75,269.3639,0.00018686,2.687e-05,0.0,0 STARLINK-4216,1 53022U 22076AN  24121.64591078  .00002687  00000-0  18686-3 0  9994,2 53022  53.2181 247.9789 0001281  90.7500 269.3639 15.08831449100623,6917.907,95.438,540.658,538.885,0.0
